NOAA 15                 
1 25338U 98030A   24182.14170472  .00000423  00000+0  19299-3 0  9995
2 25338  98.5675 208.9977 0009088 289.0267  70.9929 14.26615167359286
DMSP 5D-3 F16 (USA 172) 
1 28054U 03048A   24182.17472392  .00000246  00000+0  15323-3 0  9994
2 28054  99.0200 188.7644 0007765  24.6176  64.9897 14.14043504 68115
NOAA 18                 
1 28654U 05018A   24182.16429543  .00000361  00000+0  21606-3 0  9997
2 28654  98.8743 259.0215 0014609  30.9910 329.2122 14.13241939985091
METEOSAT-9 (MSG-2)      
1 28912U 05049B   24181.83058400  .00000125  00000+0  00000+0 0  9990
2 28912   7.7147  60.7690 0001741   6.4556 195.8307  1.00269137 67888
EWS-G1 (GOES 13)        
1 29155U 06018A   24181.78606382 -.00000153  00000+0  00000+0 0  9991
2 29155   2.6583  85.1617 0079632 255.5453  40.5037  0.99080301 36156
DMSP 5D-3 F17 (USA 191) 
1 29522U 06050A   24182.20194458  .00000262  00000+0  15903-3 0  9991
2 29522  98.7431 192.5092 0009108 307.1690  52.8651 14.14494214911031
FENGYUN 3A              
1 32958U 08026A   24182.14704810  .00000309  00000+0  16819-3 0  9994
2 32958  98.6044 128.8920 0009539  41.2605 318.9290 14.19112657833793
NOAA 19                 
1 33591U 09005A   24182.18831877  .00000331  00000+0  20157-3 0  9999
2 33591  99.0464 238.1247 0012822 254.0799 105.8960 14.13036946793468
GOES 14                 
1 35491U 09033A   24182.15794179 -.00000062  00000+0  00000+0 0  9994
2 35491   0.3708 102.8830 0003756   1.2842 122.8763  1.00271806 54960
DMSP 5D-3 F18 (USA 210) 
1 35951U 09057A   24182.21181411  .00000482  00000+0  27578-3 0  9995
2 35951  98.8140 157.3866 0012093 125.7938 234.4360 14.14150663758206
EWS-G2 (GOES 15)        
1 36411U 10008A   24182.12009771  .00000043  00000+0  00000+0 0  9993
2 36411   0.3360  89.2421 0002672 103.5659 190.2907  1.00269621 52441
COMS 1                  
1 36744U 10032A   24181.84715351 -.00000343  00000+0  00000+0 0  9999
2 36744   2.9716  84.2446 0000819  17.4257 249.8395  1.00271534 43890
FENGYUN 3B              
1 37214U 10059A   24182.16313132  .00000252  00000+0  15485-3 0  9993
2 37214  99.0540 210.4363 0023081  57.7145  57.6467 14.14513446706087
SUOMI NPP               
1 37849U 11061A   24182.15260286  .00000193  00000+0  11224-3 0  9992
2 37849  98.7222 119.9384 0000747 131.4785 228.6455 14.19523226656706
FENGYUN 2F              
1 38049U 12002A   24181.82170002 -.00000358  00000+0  00000+0 0  9990
2 38049   5.6247  73.0153 0001661 120.7779 132.4811  1.00276751 45688
METEOSAT-10 (MSG-3)     
1 38552U 12035B   24181.89324049 -.00000005  00000+0  00000+0 0  9993
2 38552   2.9934  61.0954 0000408 309.1491 229.8224  1.00268626 43665
METOP-B                 
1 38771U 12049A   24182.19524932  .00000282  00000+0  14884-3 0  9993
2 38771  98.6271 239.1263 0001486  86.5158 273.6189 14.21445524611397
INSAT-3D                
1 39216U 13038B   24177.61602647 -.00000150  00000+0  00000+0 0  9994
2 39216   0.0603 100.9311 0000654 138.8040 338.3556  1.00271304 39841
FENGYUN 3C              
1 39260U 13052A   24182.23728538  .00000232  00000+0  13803-3 0  9990
2 39260  98.4282 181.1518 0009871 292.2683  67.7445 14.16223506557175
METEOR-M 2              
1 40069U 14037A   24182.19790496  .00000316  00000+0  16509-3 0  9999
2 40069  98.4363 175.8544 0005076 332.5064  27.5844 14.20987023517479
HIMAWARI-8              
1 40267U 14060A   24181.99840803 -.00000272  00000+0  00000+0 0  9997
2 40267   0.0422 200.3261 0001219 289.7010 288.6065  1.00272782 35678
FENGYUN 2G              
1 40367U 14090A   24182.05616437 -.00000299  00000+0  00000+0 0  9992
2 40367   3.8230  81.4012 0003325 114.4522 202.5241  1.00264126 34843
METEOSAT-11 (MSG-4)     
1 40732U 15034A   24181.89515497  .00000065  00000+0  00000+0 0  9992
2 40732   1.4157  69.3955 0000960 168.6110  12.0336  1.00266740    35
ELEKTRO-L 2             
1 41105U 15074A   24182.10504278 -.00000116  00000+0  00000+0 0  9999
2 41105   4.8743  79.3243 0001065 145.3789  77.2851  1.00270278 31322
INSAT-3DR               
1 41752U 16054A   24181.90801028 -.00000074  00000+0  00000+0 0  9999
2 41752   0.1344  93.2760 0010387 173.9552  52.1112  1.00271441 28621
HIMAWARI-9              
1 41836U 16064A   24181.99840803 -.00000271  00000+0  00000+0 0  9995
2 41836   0.0398 147.1676 0000832 336.1656 295.4031  1.00270375 28110
GOES 16                 
1 41866U 16071A   24181.86368831 -.00000244  00000+0  00000+0 0  9998
2 41866   0.0796 252.0920 0000204 223.3916  38.6559  1.00269898 27919
FENGYUN 4A              
1 41882U 16077A   24181.91053394 -.00000197  00000+0  00000+0 0  9990
2 41882   0.4901  85.8854 0008065 344.8406 262.3785  1.00267295 27739
CYGFM05                 
1 41884U 16078A   24181.82882132  .00011857  00000+0  43245-3 0  9999
2 41884  34.9548 221.0319 0012023 307.7753  52.1873 15.27283440418014
CYGFM04                 
1 41885U 16078B   24181.74358041  .00012695  00000+0  45054-3 0  9999
2 41885  34.9402 205.5189 0009212 327.9881  32.0274 15.28193349418097
CYGFM02                 
1 41886U 16078C   24181.76568106  .00012763  00000+0  44811-3 0  9993
2 41886  34.9499 207.6093 0011971 318.0428  41.9370 15.28516078418188
CYGFM01                 
1 41887U 16078D   24181.81280847  .00011508  00000+0  42223-3 0  9994
2 41887  34.9456 224.9937 0011617 295.7643  64.1872 15.27094596417940
CYGFM08                 
1 41888U 16078E   24182.21467065  .00011106  00000+0  39612-3 0  9991
2 41888  34.9473 210.5033 0012528 323.9560  36.0310 15.28015891418210
CYGFM07                 
1 41890U 16078G   24181.40531263  .00013396  00000+0  47358-3 0  9995
2 41890  34.9476 207.0534 0009223 323.7886  36.2204 15.28311984418058
CYGFM03                 
1 41891U 16078H   24181.50629179  .00013367  00000+0  47362-3 0  9994
2 41891  34.9488 207.6150 0010055 309.2754  50.7069 15.28229971418054
FENGYUN 3D              
1 43010U 17072A   24182.13613150  .00000237  00000+0  13439-3 0  9996
2 43010  98.9112 136.8671 0000895 351.7058   8.4102 14.19363593343259
NOAA 20 (JPSS-1)        
1 43013U 17073A   24182.16988743  .00000170  00000+0  10129-3 0  9995
2 43013  98.7065 119.8748 0001504 137.8488 222.2804 14.19537524342746
GOES 17                 
1 43226U 18022A   24182.15872500 -.00000087  00000+0  00000+0 0  9999
2 43226   0.0431 179.2669 0000924 325.8983  85.9687  1.00270890 23241
FENGYUN 2H              
1 43491U 18050A   24181.98058964 -.00000123  00000+0  00000+0 0  9995
2 43491   1.1756  87.2164 0001665  47.8131 215.6422  1.00267681 22325
METOP-C                 
1 43689U 18087A   24182.16324973  .00000298  00000+0  15614-3 0  9994
2 43689  98.7227 241.2881 0002945  68.6416 291.5075 14.21481893292962
GEO-KOMPSAT-2A          
1 43823U 18100A   24182.15882722 -.00000340  00000+0  00000+0 0  9998
2 43823   0.0443 171.6760 0002381 281.2823  11.1820  1.00272497 20479
METEOR-M2 2             
1 44387U 19038A   24182.15033301  .00000118  00000+0  71291-4 0  9993
2 44387  98.8272 151.4254 0000403 351.4047   8.7124 14.23897563259238
ARKTIKA-M 1             
1 47719U 21016A   24181.21510051  .00000182  00000+0  00000+0 0  9998
2 47719  63.1391 150.3975 6945618 268.6751  17.9078  2.00607597 24393
FENGYUN 3E              
1 49008U 21062A   24182.24418071  .00000074  00000+0  55437-4 0  9994
2 49008  98.7317 183.3476 0001907  33.7619 326.3678 14.19761355154845
GOES 18                 
1 51850U 22021A   24182.09216141  .00000100  00000+0  00000+0 0  9996
2 51850   0.0104 246.1575 0000416 260.2795  28.3755  1.00272158  8619
NOAA 21 (JPSS-2)        
1 54234U 22150A   24181.92359070  .00000226  00000+0  12798-3 0  9998
2 54234  98.7518 119.6683 0001931  94.2712 265.8685 14.19532049 84786
METEOSAT-12 (MTG-I1)    
1 54743U 22170C   24181.74997199 -.00000003  00000+0  00000+0 0  9998
2 54743   0.5319  43.7831 0001560  52.4200  91.7341  1.00275175  5787
TIANMU-1 03             
1 55973U 23039A   24182.13539117  .00010851  00000+0  46694-3 0  9999
2 55973  97.4696 332.6797 0006205 127.3591 232.8212 15.22782885 70825
TIANMU-1 04             
1 55974U 23039B   24182.18428306  .00011571  00000+0  49608-3 0  9990
2 55974  97.4617 332.2762 0007303 125.4327 234.7593 15.22886069 70825
TIANMU-1 05             
1 55975U 23039C   24182.16818632  .00011748  00000+0  50527-3 0  9992
2 55975  97.4667 332.5951 0005555 142.4519 217.7106 15.22783468 70812
TIANMU-1 06             
1 55976U 23039D   24182.15120338  .00010971  00000+0  46915-3 0  9994
2 55976  97.4681 332.6997 0006146 141.3255 218.8422 15.22992687 70810
METEOR-M2 3             
1 57166U 23091A   24182.18553541  .00000063  00000+0  46511-4 0  9998
2 57166  98.7120 236.7423 0005163  92.9347 267.2422 14.23901635 52477
TIANMU-1 07             
1 57399U 23101A   24182.21986507  .00007977  00000+0  40286-3 0  9997
2 57399  97.3626 239.0077 0006476 133.0627 227.1150 15.17331095 52405
TIANMU-1 08             
1 57400U 23101B   24182.18914339  .00008067  00000+0  40709-3 0  9991
2 57400  97.3613 238.8492 0008529 140.5876 219.5980 15.17340826 52398
TIANMU-1 09             
1 57401U 23101C   24182.17219561  .00008904  00000+0  44909-3 0  9992
2 57401  97.3569 238.6674 0009018 137.3908 222.8027 15.17326360 52399
TIANMU-1 10             
1 57402U 23101D   24182.20449140  .00007895  00000+0  39862-3 0  9995
2 57402  97.3648 238.9872 0011252 137.1270 223.0843 15.17306810 52391
FENGYUN 3F              
1 57490U 23111A   24182.19789983  .00000168  00000+0  10006-3 0  9998
2 57490  98.7692 251.2093 0001870  77.3514 282.7871 14.19831375 47113
ARKTIKA-M 2             
1 58584U 23198A   24179.45202540  .00000143  00000+0  00000+0 0  9994
2 58584  63.2508 234.3936 6980212 269.8501  17.2465  2.00613333  3880
TIANMU-1 11             
1 58645U 23205A   24182.12916061  .00007221  00000+0  38659-3 0  9998
2 58645  97.4029 206.8850 0011301   9.7800 350.3650 15.15268614 28472
TIANMU-1 12             
1 58646U 23205B   24182.14436831  .00007952  00000+0  42502-3 0  9996
2 58646  97.4014 206.8293 0009553   3.0650 357.0639 15.15310113 28466
TIANMU-1 13             
1 58647U 23205C   24182.17719415  .00007087  00000+0  38011-3 0  9991
2 58647  97.4042 206.8600 0008851 346.2623  13.8367 15.15230931 28466
TIANMU-1 14             
1 58648U 23205D   24182.22720127  .00007932  00000+0  42483-3 0  9997
2 58648  97.3967 206.7606 0009683 348.4385  11.6623 15.15239586 28477
TIANMU-1 19             
1 58660U 23208A   24182.23442317  .00008394  00000+0  44911-3 0  9998
2 58660  97.4120 294.3004 0008026 326.9182  33.1547 15.15270196 28144
TIANMU-1 20             
1 58661U 23208B   24182.23114202  .00008182  00000+0  42811-3 0  9990
2 58661  97.4047 294.2741 0009036 337.4708  22.6127 15.16063081 28155
TIANMU-1 21             
1 58662U 23208C   24182.21643662  .00009060  00000+0  46165-3 0  9998
2 58662  97.4084 294.5423 0008706 337.2653  22.8194 15.16966934 28163
TIANMU-1 22             
1 58663U 23208D   24182.18503982  .00008538  00000+0  45730-3 0  9991
2 58663  97.4105 294.3253 0004718 358.3525   1.7691 15.15244725 28140
TIANMU-1 15             
1 58700U 24004A   24182.15964408  .00007453  00000+0  39969-3 0  9991
2 58700  97.4630   3.0248 0010113  17.1890 342.9683 15.15210979 26733
TIANMU-1 16             
1 58701U 24004B   24182.20828078  .00007224  00000+0  38717-3 0  9996
2 58701  97.4554   2.9409 0010227  22.2690 337.8985 15.15245941 26743
TIANMU-1 17             
1 58702U 24004C   24182.19340652  .00008197  00000+0  43932-3 0  9997
2 58702  97.4597   3.0625 0007938  18.9162 341.2363 15.15220059 26735
TIANMU-1 18             
1 58703U 24004D   24182.17640139  .00007740  00000+0  41480-3 0  9998
2 58703  97.4616   3.1207 0006939  11.0513 349.0871 15.15249393 26731
INSAT-3DS               
1 58990U 24033A   24171.63670715 -.00000142  00000+0  00000+0 0  9999
2 58990   0.0159 349.8168 0010402 105.1251 125.6022  1.00268037   992
METEOR-M2 4             
1 59051U 24039A   24182.14984525  .00000101  00000+0  64987-4 0  9992
2 59051  98.5981 143.7243 0008287  87.3380 272.8747 14.22235203 17335
